STARLINK-34084          
1 63970U 25099U   25315.74837149  .00029338  00000+0  10706-2 0  9999
2 63970  43.0023 121.8566 0002380 271.6246  88.4333 15.27604213 29303
STARLINK-34138          
1 63971U 25099V   25315.45147784  .00029923  00000+0  10918-2 0  9992
2 63971  43.0038 120.4682 0000456 265.1450  94.9349 15.27601558 29297
STARLINK-34115          
1 63972U 25099W   25315.50658409  .00026353  00000+0  96292-3 0  9994
2 63972  43.0012 120.0250 0001996 264.0248  96.0376 15.27607340 29300
STARLINK-34028          
1 63973U 25099X   25315.86307363  .00054754  00000+0  19833-2 0  9995
2 63973  43.0023 118.3934 0001680 281.3276  78.7387 15.27600066 29357
STARLINK-33942          
1 63974U 25099Y   25315.72844408  .00033994  00000+0  12381-2 0  9991
2 63974  43.0027 119.1031 0002026 287.7728  72.2903 15.27606663 29336
STARLINK-34139          
1 63975U 25099Z   25315.85536349  .00047230  00000+0  17138-2 0  9991
2 63975  43.0025 118.3347 0002086 282.0221  78.0397 15.27599345 29269
STARLINK-34090          
1 63976U 25099AA  25315.52456570  .00046054  00000+0  16715-2 0  9996
2 63976  43.0025 120.1491 0001588 252.6960 107.3718 15.27602139 29214
STARLINK-34105          
1 63977U 25099AB  25315.84893828  .00044510  00000+0  16162-2 0  9994
2 63977  43.0039 118.2873 0001945 284.2478  75.8158 15.27600508 29264
STARLINK-33642          
1 63978U 25099AC  25315.84122828  .00034843  00000+0  12690-2 0  9990
2 63978  43.0046 118.2321 0001602 282.4146  77.6526 15.27597673 29260
STARLINK-34045          
1 63979U 25099AD  25315.83736643  .00057615  00000+0  20850-2 0  9995
2 63979  43.0049 118.2002 0001737 260.8382  99.2273 15.27610683 29267
STARLINK-33871          
1 63994U 25101A   25316.26943145  .00093293  00000+0  33544-2 0  9997
2 63994  43.0017 301.4059 0001679 275.6911  84.3749 15.27606311 29024
STARLINK-34154          
1 63995U 25101B   25316.24115782  .00053610  00000+0  19415-2 0  9994
2 63995  42.9980 301.1979 0001260 255.2696 104.8016 15.27614090 29095
STARLINK-34158          
1 63996U 25101C   25316.29884752  .00104592  00000+0  37520-2 0  9993
2 63996  43.0033 300.8144 0001444 277.7342  82.3346 15.27621913 29108
STARLINK-34165          
1 63997U 25101D   25316.02572572  .00016968  00000+0  62451-3 0  9990
2 63997  43.0038 302.1638 0001550 270.8673  89.2001 15.27590165 29069
STARLINK-34150          
1 63998U 25101E   25316.26172139  .00070197  00000+0  25337-2 0  9997
2 63998  43.0020 301.3561 0001258 267.4721  92.5987 15.27613233 29093
STARLINK-34169          
1 63999U 25101F   25316.29755404  .00094482  00000+0  33945-2 0  9990
2 63999  43.0023 300.7638 0001406 269.1223  90.9468 15.27626054 29109
