[{"OBJECT_NAME":"STARLINK-34084","OBJECT_ID":"2025-099U","EPOCH":"2025-11-11T17:57:39.296736","MEAN_MOTION":15.27604213,"ECCENTRICITY":0.000238,"INCLINATION":43.0023,"RA_OF_ASC_NODE":121.8566,"ARG_OF_PERICENTER":271.6246,"MEAN_ANOMALY":88.4333,"EPHEMERIS_TYPE":0,"CLASSIFICATION_TYPE":"U","NORAD_CAT_ID":63970,"ELEMENT_SET_NO":999,"REV_AT_EPOCH":2930,"BSTAR":0.0010705759,"MEAN_MOTION_DOT":0.00029338,"MEAN_MOTION_DDOT":0},{"OBJECT_NAME":"STARLINK-34138","OBJECT_ID":"2025-099V","EPOCH":"2025-11-11T10:50:07.685376","MEAN_MOTION":15.27601558,"ECCENTRICITY":4.563e-5,"INCLINATION":43.0038,"RA_OF_ASC_NODE":120.4682,"ARG_OF_PERICENTER":265.145,"MEAN_ANOMALY":94.9349,"EPHEMERIS_TYPE":0,"CLASSIFICATION_TYPE":"U","NORAD_CAT_ID":63971,"ELEMENT_SET_NO":999,"REV_AT_EPOCH":2929,"BSTAR":0.0010917799,"MEAN_MOTION_DOT":0.00029923,"MEAN_MOTION_DDOT":0},{"OBJECT_NAME":"STARLINK-34115","OBJECT_ID":"2025-099W","EPOCH":"2025-11-11T12:09:28.865376","MEAN_MOTION":15.2760734,"ECCENTRICITY":0.00019966,"INCLINATION":43.0012,"RA_OF_ASC_NODE":120.025,"ARG_OF_PERICENTER":264.0248,"MEAN_ANOMALY":96.0376,"EPHEMERIS_TYPE":0,"CLASSIFICATION_TYPE":"U","NORAD_CAT_ID":63972,"ELEMENT_SET_NO":999,"REV_AT_EPOCH":2930,"BSTAR":0.00096292437,"MEAN_MOTION_DOT":0.00026353,"MEAN_MOTION_DDOT":0},{"OBJECT_NAME":"STARLINK-34028","OBJECT_ID":"2025-099X","EPOCH":"2025-11-11T20:42:49.561632","MEAN_MOTION":15.27600066,"ECCENTRICITY":0.000168,"INCLINATION":43.0023,"RA_OF_ASC_NODE":118.3934,"ARG_OF_PERICENTER":281.3276,"MEAN_ANOMALY":78.7387,"EPHEMERIS_TYPE":0,"CLASSIFICATION_TYPE":"U","NORAD_CAT_ID":63973,"ELEMENT_SET_NO":999,"REV_AT_EPOCH":2935,"BSTAR":0.0019832952,"MEAN_MOTION_DOT":0.00054754,"MEAN_MOTION_DDOT":0},{"OBJECT_NAME":"STARLINK-33942","OBJECT_ID":"2025-099Y","EPOCH":"2025-11-11T17:28:57.568512","MEAN_MOTION":15.27606663,"ECCENTRICITY":0.00020266,"INCLINATION":43.0027,"RA_OF_ASC_NODE":119.1031,"ARG_OF_PERICENTER":287.7728,"MEAN_ANOMALY":72.2903,"EPHEMERIS_TYPE":0,"CLASSIFICATION_TYPE":"U","NORAD_CAT_ID":63974,"ELEMENT_SET_NO":999,"REV_AT_EPOCH":2933,"BSTAR":0.0012381094,"MEAN_MOTION_DOT":0.00033994,"MEAN_MOTION_DDOT":0},{"OBJECT_NAME":"STARLINK-34139","OBJECT_ID":"2025-099Z","EPOCH":"2025-11-11T20:31:43.405536","MEAN_MOTION":15.27599345,"ECCENTRICITY":0.00020863,"INCLINATION":43.0025,"RA_OF_ASC_NODE":118.3347,"ARG_OF_PERICENTER":282.0221,"MEAN_ANOMALY":78.0397,"EPHEMERIS_TYPE":0,"CLASSIFICATION_TYPE":"U","NORAD_CAT_ID":63975,"ELEMENT_SET_NO":999,"REV_AT_EPOCH":2926,"BSTAR":0.0017138107,"MEAN_MOTION_DOT":0.0004723,"MEAN_MOTION_DDOT":0},{"OBJECT_NAME":"STARLINK-34090","OBJECT_ID":"2025-099AA","EPOCH":"2025-11-11T12:35:22.476480","MEAN_MOTION":15.27602139,"ECCENTRICITY":0.00015887,"INCLINATION":43.0025,"RA_OF_ASC_NODE":120.1491,"ARG_OF_PERICENTER":252.696,"MEAN_ANOMALY":107.3718,"EPHEMERIS_TYPE":0,"CLASSIFICATION_TYPE":"U","NORAD_CAT_ID":63976,"ELEMENT_SET_NO":999,"REV_AT_EPOCH":2921,"BSTAR":0.0016715255,"MEAN_MOTION_DOT":0.00046054,"MEAN_MOTION_DDOT":0},{"OBJECT_NAME":"STARLINK-34105","OBJECT_ID":"2025-099AB","EPOCH":"2025-11-11T20:22:28.267392","MEAN_MOTION":15.27600508,"ECCENTRICITY":0.00019458,"INCLINATION":43.0039,"RA_OF_ASC_NODE":118.2873,"ARG_OF_PERICENTER":284.2478,"MEAN_ANOMALY":75.8158,"EPHEMERIS_TYPE":0,"CLASSIFICATION_TYPE":"U","NORAD_CAT_ID":63977,"ELEMENT_SET_NO":999,"REV_AT_EPOCH":2926,"BSTAR":0.0016162032,"MEAN_MOTION_DOT":0.0004451,"MEAN_MOTION_DDOT":0},{"OBJECT_NAME":"STARLINK-33642","OBJECT_ID":"2025-099AC","EPOCH":"2025-11-11T20:11:22.123392","MEAN_MOTION":15.27597673,"ECCENTRICITY":0.00016024,"INCLINATION":43.0046,"RA_OF_ASC_NODE":118.2321,"ARG_OF_PERICENTER":282.4146,"MEAN_ANOMALY":77.6526,"EPHEMERIS_TYPE":0,"CLASSIFICATION_TYPE":"U","NORAD_CAT_ID":63978,"ELEMENT_SET_NO":999,"REV_AT_EPOCH":2926,"BSTAR":0.0012690352,"MEAN_MOTION_DOT":0.00034843,"MEAN_MOTION_DDOT":0},{"OBJECT_NAME":"STARLINK-34045","OBJECT_ID":"2025-099AD","EPOCH":"2025-11-11T20:05:48.459552","MEAN_MOTION":15.27610683,"ECCENTRICITY":0.00017372,"INCLINATION":43.0049,"RA_OF_ASC_NODE":118.2002,"ARG_OF_PERICENTER":260.8382,"MEAN_ANOMALY":99.2273,"EPHEMERIS_TYPE":0,"CLASSIFICATION_TYPE":"U","NORAD_CAT_ID":63979,"ELEMENT_SET_NO":999,"REV_AT_EPOCH":2926,"BSTAR":0.0020849696,"MEAN_MOTION_DOT":0.00057615,"MEAN_MOTION_DDOT":0},{"OBJECT_NAME":"STARLINK-33871","OBJECT_ID":"2025-101A","EPOCH":"2025-11-12T06:27:58.877280","MEAN_MOTION":15.27606311,"ECCENTRICITY":0.00016792,"INCLINATION":43.0017,"RA_OF_ASC_NODE":301.4059,"ARG_OF_PERICENTER":275.6911,"MEAN_ANOMALY":84.3749,"EPHEMERIS_TYPE":0,"CLASSIFICATION_TYPE":"U","NORAD_CAT_ID":63994,"ELEMENT_SET_NO":999,"REV_AT_EPOCH":2902,"BSTAR":0.0033543784,"MEAN_MOTION_DOT":0.00093293,"MEAN_MOTION_DDOT":0},{"OBJECT_NAME":"STARLINK-34154","OBJECT_ID":"2025-101B","EPOCH":"2025-11-12T05:47:16.035648","MEAN_MOTION":15.2761409,"ECCENTRICITY":0.00012605,"INCLINATION":42.998,"RA_OF_ASC_NODE":301.1979,"ARG_OF_PERICENTER":255.2696,"MEAN_ANOMALY":104.8016,"EPHEMERIS_TYPE":0,"CLASSIFICATION_TYPE":"U","NORAD_CAT_ID":63995,"ELEMENT_SET_NO":999,"REV_AT_EPOCH":2909,"BSTAR":0.0019415376,"MEAN_MOTION_DOT":0.0005361,"MEAN_MOTION_DDOT":0},{"OBJECT_NAME":"STARLINK-34158","OBJECT_ID":"2025-101C","EPOCH":"2025-11-12T07:10:20.425728","MEAN_MOTION":15.27621913,"ECCENTRICITY":0.00014449,"INCLINATION":43.0033,"RA_OF_ASC_NODE":300.8144,"ARG_OF_PERICENTER":277.7342,"MEAN_ANOMALY":82.3346,"EPHEMERIS_TYPE":0,"CLASSIFICATION_TYPE":"U","NORAD_CAT_ID":63996,"ELEMENT_SET_NO":999,"REV_AT_EPOCH":2910,"BSTAR":0.0037520055,"MEAN_MOTION_DOT":0.00104592,"MEAN_MOTION_DDOT":0},{"OBJECT_NAME":"STARLINK-34165","OBJECT_ID":"2025-101D","EPOCH":"2025-11-12T00:37:02.702208","MEAN_MOTION":15.27590165,"ECCENTRICITY":0.00015503,"INCLINATION":43.0038,"RA_OF_ASC_NODE":302.1638,"ARG_OF_PERICENTER":270.8673,"MEAN_ANOMALY":89.2001,"EPHEMERIS_TYPE":0,"CLASSIFICATION_TYPE":"U","NORAD_CAT_ID":63997,"ELEMENT_SET_NO":999,"REV_AT_EPOCH":2906,"BSTAR":0.00062451109,"MEAN_MOTION_DOT":0.00016968,"MEAN_MOTION_DDOT":0},{"OBJECT_NAME":"STARLINK-34150","OBJECT_ID":"2025-101E","EPOCH":"2025-11-12T06:16:52.728096","MEAN_MOTION":15.27613233,"ECCENTRICITY":0.00012581,"INCLINATION":43.002,"RA_OF_ASC_NODE":301.3561,"ARG_OF_PERICENTER":267.4721,"MEAN_ANOMALY":92.5987,"EPHEMERIS_TYPE":0,"CLASSIFICATION_TYPE":"U","NORAD_CAT_ID":63998,"ELEMENT_SET_NO":999,"REV_AT_EPOCH":2909,"BSTAR":0.0025337222,"MEAN_MOTION_DOT":0.00070197,"MEAN_MOTION_DDOT":0},{"OBJECT_NAME":"STARLINK-34169","OBJECT_ID":"2025-101F","EPOCH":"2025-11-12T07:08:28.669056","MEAN_MOTION":15.27626054,"ECCENTRICITY":0.00014067,"INCLINATION":43.0023,"RA_OF_ASC_NODE":300.7638,"ARG_OF_PERICENTER":269.1223,"MEAN_ANOMALY":90.9468,"EPHEMERIS_TYPE":0,"CLASSIFICATION_TYPE":"U","NORAD_CAT_ID":63999,"ELEMENT_SET_NO":999,"REV_AT_EPOCH":2910,"BSTAR":0.0033944712,"MEAN_MOTION_DOT":0.00094482,"MEAN_MOTION_DDOT":0}]
